OBJECT_NAME,OBJECT_ID,EPOCH,MEAN_MOTION,ECCENTRICITY,INCLINATION,RA_OF_ASC_NODE,ARG_OF_PERICENTER,MEAN_ANOMALY,EPHEMERIS_TYPE,CLASSIFICATION_TYPE,NORAD_CAT_ID,ELEMENT_SET_NO,REV_AT_EPOCH,BSTAR,MEAN_MOTION_DOT,MEAN_MOTION_DDOT
KUIPER-00613,2026-118AC,2026-06-05T16:00:01.998720,15.35616224,.0010475,51.8616,109.0414,146.8448,61.7756,0,U,69293,999,130,.12901E-2,.45318E-3,0
KUIPER-00618,2026-118AD,2026-06-05T16:00:01.998720,15.38429244,.0002043,51.8713,108.9096,63.1064,204.6021,0,U,69294,999,130,.11488E-2,.44099E-3,0
KUIPER-00620,2026-118AE,2026-06-05T16:00:01.998720,15.38115736,.0003025,51.8708,108.9275,86.1476,174.1320,0,U,69295,999,215,.11058E-2,.41989E-3,0
STARLINK-37501,2026-119A,2026-06-05T16:00:01.998720,15.87549371,.0001413,97.2842,181.8335,101.1063,120.3506,0,U,69296,999,203,-.94733E-2,-.214848E-1,0
STARLINK-37496,2026-119B,2026-06-05T16:00:01.998720,15.87839547,.0001338,97.2840,181.8348,103.8552,120.2280,0,U,69297,999,203,-.93978E-2,-.2160243E-1,0
STARLINK-37519,2026-119C,2026-06-05T16:00:01.998720,15.88231861,.0001456,97.2840,181.8372,109.2947,121.0950,0,U,69298,999,203,-.90636E-2,-.2130017E-1,0
STARLINK-37455,2026-119D,2026-06-05T16:00:01.998720,15.88088469,.0001456,97.2839,181.8358,103.2800,123.6285,0,U,69299,999,203,-.92492E-2,-.215399E-1,0
STARLINK-37456,2026-119E,2026-06-05T16:00:01.998720,15.88511592,.0001298,97.2840,181.8385,111.6903,121.1695,0,U,69300,999,203,-.89809E-2,-.2138693E-1,0
STARLINK-37630,2026-119F,2026-06-05T16:00:01.998720,15.88745994,.0001336,97.2841,181.8393,106.3199,129.2625,0,U,69301,999,219,-.88145E-2,-.2126148E-1,0
STARLINK-37804,2026-119G,2026-06-05T16:00:01.998720,15.88974103,.0001426,97.2840,181.8405,104.3310,134.0320,0,U,69302,999,219,-.87021E-2,-.2123851E-1,0
STARLINK-37730,2026-119H,2026-06-05T16:00:01.998720,15.89196244,.0001441,97.2841,181.8416,107.3924,133.6874,0,U,69303,999,219,-.8555E-2,-.2113305E-1,0
STARLINK-37731,2026-119J,2026-06-05T16:00:01.998720,15.89417629,.0001608,97.2841,181.8425,98.9165,144.6543,0,U,69304,999,219,-.82605E-2,-.2358923E-1,.14521E-2
STARLINK-37734,2026-119K,2026-06-05T16:00:01.998720,15.89645950,.0001552,97.2844,181.8438,102.8434,143.4609,0,U,69305,999,219,-.82933E-2,-.2395097E-1,.14988E-2
STARLINK-37701,2026-119L,2026-06-05T16:00:01.998720,15.89865479,.0001551,97.2840,181.8445,101.1984,147.3475,0,U,69306,999,219,-.79613E-2,-.2325279E-1,.14193E-2
STARLINK-37732,2026-119M,2026-06-05T16:00:01.998720,15.90094961,.0001557,97.2843,181.8460,103.9961,147.0868,0,U,69307,999,219,-.79798E-2,-.2357371E-1,.14606E-2
STARLINK-37689,2026-119N,2026-06-05T16:00:01.998720,15.90317739,.0001478,97.2837,181.8466,102.0569,151.3086,0,U,69308,999,219,-.78292E-2,-.2339101E-1,.14423E-2
STARLINK-37619,2026-119P,2026-06-05T16:00:01.998720,15.90526784,.000154,97.2838,181.8476,102.2855,153.4803,0,U,69309,999,219,-.76773E-2,-.2318269E-1,.14209E-2
STARLINK-37794,2026-119Q,2026-06-05T16:00:01.998720,15.90722839,.0001426,97.2841,181.8485,100.5753,157.4401,0,U,69310,999,219,-.74103E-2,-.2260458E-1,.13567E-2
STARLINK-37795,2026-119R,2026-06-05T16:00:01.998720,15.90939978,.0001462,97.2839,181.8493,102.6433,157.7784,0,U,69311,999,219,-.74355E-2,-.2292911E-1,.13974E-2
STARLINK-37790,2026-119S,2026-06-05T16:00:01.998720,15.91139610,.0001377,97.2837,181.8504,100.7350,161.9684,0,U,69312,999,219,-.73019E-2,-.2274817E-1,.13793E-2
STARLINK-37676,2026-119T,2026-06-05T16:00:01.998720,15.91323244,.0001477,97.2840,181.8514,101.5182,163.5571,0,U,69313,999,219,-.70796E-2,-.2226773E-1,.13267E-2
STARLINK-37617,2026-119U,2026-06-05T16:00:01.998720,15.91510486,.000145,97.2837,181.8520,99.7516,167.8542,0,U,69314,999,219,-.69983E-2,-.222238E-1,.13244E-2
STARLINK-37627,2026-119V,2026-06-05T16:00:01.998720,15.91704497,.0001401,97.2838,181.8532,101.1065,168.6750,0,U,69315,999,219,-.68782E-2,-.220616E-1,.13087E-2
STARLINK-37738,2026-119W,2026-06-05T16:00:01.998720,15.91907580,.0001422,97.2838,181.8544,103.0707,168.9889,0,U,69316,999,219,-.69059E-2,-.2237873E-1,.13477E-2
STARLINK-37799,2026-119X,2026-06-05T16:00:01.998720,15.92089951,.0001454,97.2839,181.8554,100.5071,173.9299,0,U,69317,999,214,-.67963E-2,-.2223223E-1,.13335E-2
STARLINK-37802,2026-119Y,2026-06-05T16:00:01.998720,15.92257906,.0001379,97.2839,181.8563,97.7633,178.9154,0,U,69318,999,219,-.65892E-2,-.2174673E-1,.12808E-2
STARLINK-37803,2026-119Z,2026-06-05T16:00:01.998720,15.92447243,.0001377,97.2840,181.8572,101.0331,177.5266,0,U,69319,999,214,-.64715E-2,-.2156962E-1,.12636E-2
GUOWANG TEST OBJECT A,2026-120A,2026-06-05T12:20:04.270848,15.38761134,.0009457,54.9970,80.3078,289.5778,70.4229,0,U,69320,999,89,.24352E-3,.9089E-4,0
GUOWANG TEST OBJECT B,2026-120B,2026-06-04T06:41:24.658368,15.39121370,.00091004,55.0006,85.8667,296.4175,63.5919,0,U,69321,999,70,.6938966E-3,.27005E-3,0
