KUIPER-00613            
1 69293U 26118AC  26156.66668980  .00045318  00000+0  12901-2 0  9991
2 69293  51.8616 109.0414 0010475 146.8448  61.7756 15.35616224  1300
KUIPER-00618            
1 69294U 26118AD  26156.66668980  .00044099  00000+0  11488-2 0  9996
2 69294  51.8713 108.9096 0002043  63.1064 204.6021 15.38429244  1300
KUIPER-00620            
1 69295U 26118AE  26156.66668980  .00041989  00000+0  11058-2 0  9995
2 69295  51.8708 108.9275 0003025  86.1476 174.1320 15.38115736  2152
STARLINK-37501          
1 69296U 26119A   26156.66668980 -.02148480  00000+0 -94733-2 0  9996
2 69296  97.2842 181.8335 0001413 101.1063 120.3506 15.87549371  2038
STARLINK-37496          
1 69297U 26119B   26156.66668980 -.02160243  00000+0 -93978-2 0  9998
2 69297  97.2840 181.8348 0001338 103.8552 120.2280 15.87839547  2034
STARLINK-37519          
1 69298U 26119C   26156.66668980 -.02130017  00000+0 -90636-2 0  9993
2 69298  97.2840 181.8372 0001456 109.2947 121.0950 15.88231861  2030
STARLINK-37455          
1 69299U 26119D   26156.66668980 -.02153990  00000+0 -92492-2 0  9991
2 69299  97.2839 181.8358 0001456 103.2800 123.6285 15.88088469  2038
STARLINK-37456          
1 69300U 26119E   26156.66668980 -.02138693  00000+0 -89809-2 0  9995
2 69300  97.2840 181.8385 0001298 111.6903 121.1695 15.88511592  2030
STARLINK-37630          
1 69301U 26119F   26156.66668980 -.02126148  00000+0 -88145-2 0  9990
2 69301  97.2841 181.8393 0001336 106.3199 129.2625 15.88745994  2196
STARLINK-37804          
1 69302U 26119G   26156.66668980 -.02123851  00000+0 -87021-2 0  9991
2 69302  97.2840 181.8405 0001426 104.3310 134.0320 15.88974103  2195
STARLINK-37730          
1 69303U 26119H   26156.66668980 -.02113305  00000+0 -85550-2 0  9990
2 69303  97.2841 181.8416 0001441 107.3924 133.6874 15.89196244  2192
STARLINK-37731          
1 69304U 26119J   26156.66668980 -.02358923  14521-2 -82605-2 0  9992
2 69304  97.2841 181.8425 0001608  98.9165 144.6543 15.89417629  2198
STARLINK-37734          
1 69305U 26119K   26156.66668980 -.02395097  14988-2 -82933-2 0  9997
2 69305  97.2844 181.8438 0001552 102.8434 143.4609 15.89645950  2198
STARLINK-37701          
1 69306U 26119L   26156.66668980 -.02325279  14193-2 -79613-2 0  9992
2 69306  97.2840 181.8445 0001551 101.1984 147.3475 15.89865479  2198
STARLINK-37732          
1 69307U 26119M   26156.66668980 -.02357371  14606-2 -79798-2 0  9994
2 69307  97.2843 181.8460 0001557 103.9961 147.0868 15.90094961  2195
STARLINK-37689          
1 69308U 26119N   26156.66668980 -.02339101  14423-2 -78292-2 0  9991
2 69308  97.2837 181.8466 0001478 102.0569 151.3086 15.90317739  2192
STARLINK-37619          
1 69309U 26119P   26156.66668980 -.02318269  14209-2 -76773-2 0  9998
2 69309  97.2838 181.8476 0001540 102.2855 153.4803 15.90526784  2197
STARLINK-37794          
1 69310U 26119Q   26156.66668980 -.02260458  13567-2 -74103-2 0  9997
2 69310  97.2841 181.8485 0001426 100.5753 157.4401 15.90722839  2191
STARLINK-37795          
1 69311U 26119R   26156.66668980 -.02292911  13974-2 -74355-2 0  9998
2 69311  97.2839 181.8493 0001462 102.6433 157.7784 15.90939978  2197
STARLINK-37790          
1 69312U 26119S   26156.66668980 -.02274817  13793-2 -73019-2 0  9999
2 69312  97.2837 181.8504 0001377 100.7350 161.9684 15.91139610  2193
STARLINK-37676          
1 69313U 26119T   26156.66668980 -.02226773  13267-2 -70796-2 0  9993
2 69313  97.2840 181.8514 0001477 101.5182 163.5571 15.91323244  2193
STARLINK-37617          
1 69314U 26119U   26156.66668980 -.02222380  13244-2 -69983-2 0  9995
2 69314  97.2837 181.8520 0001450  99.7516 167.8542 15.91510486  2198
STARLINK-37627          
1 69315U 26119V   26156.66668980 -.02206160  13087-2 -68782-2 0  9995
2 69315  97.2838 181.8532 0001401 101.1065 168.6750 15.91704497  2193
STARLINK-37738          
1 69316U 26119W   26156.66668980 -.02237873  13477-2 -69059-2 0  9992
2 69316  97.2838 181.8544 0001422 103.0707 168.9889 15.91907580  2198
STARLINK-37799          
1 69317U 26119X   26156.66668980 -.02223223  13335-2 -67963-2 0  9992
2 69317  97.2839 181.8554 0001454 100.5071 173.9299 15.92089951  2142
STARLINK-37802          
1 69318U 26119Y   26156.66668980 -.02174673  12808-2 -65892-2 0  9990
2 69318  97.2839 181.8563 0001379  97.7633 178.9154 15.92257906  2197
STARLINK-37803          
1 69319U 26119Z   26156.66668980 -.02156962  12636-2 -64715-2 0  9994
2 69319  97.2840 181.8572 0001377 101.0331 177.5266 15.92447243  2141
GUOWANG TEST OBJECT A   
1 69320U 26120A   26156.51393832  .00009089  00000+0  24352-3 0  9999
2 69320  54.9970  80.3078 0009457 289.5778  70.4229 15.38761134   893
GUOWANG TEST OBJECT B   
1 69321U 26120B   26155.27875762  .00027005  00000+0  69390-3 0  9998
2 69321  55.0006  85.8667 0009100 296.4175  63.5919 15.39121370   705
